{"buildings": {
  "building": [
    {
      "BuildingCode": "KOH",
      "BuildingName": "King Olympic Hall",
      "City": "Los Angeles",
      "Latitude": 34.024547,
      "Longitude": -118.288,
      "State": "CA",
      "StreetName": "W 34th St",
      "StreetNo": 1027,
      "Zip": 90007
    },
    {
      "BuildingCode": "CFX",
      "BuildingName": "Cromwell Field",
      "City": "Los Angeles",
      "Latitude": 34.021631,
      "Longitude": -118.289,
      "State": "CA",
      "StreetName": "W 34th St",
      "StreetNo": 1026,
      "Zip": 90089
    },
    {
      "BuildingCode": "JEP",
      "BuildingName": "JEP House",
      "City": "Los Angeles",
      "Latitude": 34.022947,
      "Longitude": -118.284,
      "State": "CA",
      "StreetName": "W 34th St",
      "StreetNo": 801,
      "Zip": 90089
    },
    {
      "BuildingCode": "SHC",
      "BuildingName": "Student Health Center",
      "City": "Los Angeles",
      "Latitude": 34.023303,
      "Longitude": -118.285,
      "State": "CA",
      "StreetName": "W 34th St",
      "StreetNo": 849,
      "Zip": 90089
    },
    {
      "BuildingCode": "LVY",
      "BuildingName": "Leavey Library",
      "City": "Los Angeles",
      "Latitude": 34.021595,
      "Longitude": -118.282,
      "State": "CA",
      "StreetName": "W 35th St",
      "StreetNo": 651,
      "Zip": 90089
    },
    {
      "BuildingCode": "VKC",
      "BuildingName": "Von KleinSmid Center",
      "City": "Los Angeles",
      "Latitude": 34.021649,
      "Longitude": -118.284,
      "State": "CA",
      "StreetName": "Trousdale",
      "StreetNo": 3518,
      "Zip": 90089
    },
    {
      "BuildingCode": "WPH",
      "BuildingName": "Waite Phillips Hall",
      "City": "Los Angeles",
      "Latitude": 34.022289,
      "Longitude": -118.284,
      "State": "CA",
      "StreetName": "Trousdale",
      "StreetNo": 3550,
      "Zip": 90089
    },
    {
      "BuildingCode": "JHH",
      "BuildingName": "John Hubbard Hall",
      "City": "Los Angeles",
      "Latitude": 34.020101,
      "Longitude": -118.284,
      "State": "CA",
      "StreetName": "Childs Way",
      "StreetNo": 615,
      "Zip": 90089
    },
    {
      "BuildingCode": "REG",
      "BuildingName": "Registration Builing",
      "City": "Los Angeles",
      "Latitude": 34.019603,
      "Longitude": -118.282,
      "State": "CA",
      "StreetName": "Childs Way",
      "StreetNo": 611,
      "Zip": 90089
    },
    {
      "BuildingCode": "STU",
      "BuildingName": "Student Union",
      "City": "Los Angeles",
      "Latitude": 34.020226,
      "Longitude": -118.286,
      "State": "CA",
      "StreetName": "Trousdale",
      "StreetNo": 3551,
      "Zip": 90089
    },
    {
      "BuildingCode": "BKS",
      "BuildingName": "Bookstore",
      "City": "Los Angeles",
      "Latitude": 34.020635,
      "Longitude": -118.286,
      "State": "CA",
      "StreetName": "Childs Way",
      "StreetNo": 840,
      "Zip": 90089
    },
    {
      "BuildingCode": "RTH",
      "BuildingName": "Ronald Tutor Hall",
      "City": "Los Angeles",
      "Latitude": 34.020137,
      "Longitude": -118.29,
      "State": "CA",
      "StreetName": "McClintock",
      "StreetNo": 3710,
      "Zip": 90089
    },
    {
      "BuildingCode": "SAL",
      "BuildingName": "Salvatori Com. Center",
      "City": "Los Angeles",
      "Latitude": 34.01955,
      "Longitude": -118.289,
      "State": "CA",
      "StreetName": "W 37th Place",
      "StreetNo": 941,
      "Zip": 90089
    },
    {
      "BuildingCode": "EEB",
      "BuildingName": "Electrical Engr Center",
      "City": "Los Angeles",
      "Latitude": 34.019728,
      "Longitude": -118.29,
      "State": "CA",
      "StreetName": "McClintock",
      "StreetNo": 3715,
      "Zip": 90089
    },
    {
      "BuildingCode": "OHE",
      "BuildingName": "Olin Hall Engineering",
      "City": "Los Angeles",
      "Latitude": 34.020493,
      "Longitude": -118.29,
      "State": "CA",
      "StreetName": "McClintock",
      "StreetNo": 3650,
      "Zip": 90089
    }
  ],
  "xmlns:xsi": "http://www.w3.org/2001/XMLSchema-instance",
  "xsi:schemaLocation": "building.xsd"
}}